{
    "satellites": [
        {
            "name": "starlink339",
            "title": "Starlink-339 (G15-13)",
            "tle": [
                "1 67218C 25304AC  26011.11298611 -.00042439  00000+0 -68973-3 0   111",
                "2 67218  70.0001 325.1287 0003426 271.0878  54.4487 15.52564661    14"
            ],
            "stdMag": 5,
            "noradId": "67218",
            "tleUrl": "http://celestrak.org/NORAD/elements/supplemental/sup-gp.php?FILE=starlink&FORMAT=tle",
            "launchDate": "2025-12-17T15:27:50.000Z",
            "active": true,
            "batch": [
                {
                    "noradId": "67218",
                    "tle": [
                        "1 67218C 25304AC  26011.11298611 -.00042439  00000+0 -68973-3 0   111",
                        "2 67218  70.0001 325.1287 0003426 271.0878  54.4487 15.52564661    14"
                    ]
                },
                {
                    "noradId": "67217",
                    "tle": [
                        "1 67217C 25304AB  26011.11368056 -.00050884  00000+0 -82695-3 0   111",
                        "2 67217  70.0001 325.1291 0003282 271.6212  55.8741 15.52574523    12"
                    ]
                },
                {
                    "noradId": "67216",
                    "tle": [
                        "1 67216C 25304AA  26011.11576389 -.00047489  00000+0 -77183-3 0   113",
                        "2 67216  70.0001 325.1257 0003231 270.6725  66.5488 15.52569174    18"
                    ]
                },
                {
                    "noradId": "67215",
                    "tle": [
                        "1 67215C 25304Z   26011.11506944 -.00046333  00000+0 -75307-3 0   115",
                        "2 67215  70.0001 325.1299 0003190 271.8226  59.6088 15.52567148    14"
                    ]
                },
                {
                    "noradId": "67214",
                    "tle": [
                        "1 67214C 25304Y   26011.11437500 -.00060170  00000+0 -97735-3 0   119",
                        "2 67214  70.0001 325.1339 0003545 271.1281  54.4877 15.52597223    12"
                    ]
                },
                {
                    "noradId": "67213",
                    "tle": [
                        "1 67213C 25304X   26011.11159722 -.01262000  00000+0 -20868-1 0   113",
                        "2 67213  70.0000 325.1444 0003804 267.0944  40.8379 15.53320201    12"
                    ]
                },
                {
                    "noradId": "67212",
                    "tle": [
                        "1 67212C 25304W   26011.11298611 -.02269500  00000+0 -44969-1 0   114",
                        "2 67212  69.9999 325.1481 0003721 268.0621  41.4068 15.49209763    13"
                    ]
                },
                {
                    "noradId": "67211",
                    "tle": [
                        "1 67211C 25304V   26011.11437500 -.02201200  00000+0 -47618-1 0   112",
                        "2 67211  69.9997 325.1574 0003728 270.5433  35.1803 15.46566550    13"
                    ]
                },
                {
                    "noradId": "67210",
                    "tle": [
                        "1 67210C 25304U   26011.11298611 -.00307520  00000+0 -70068-2 0   115",
                        "2 67210  69.9998 325.1803 0002448 267.4319  14.0251 15.43089805    17"
                    ]
                },
                {
                    "noradId": "67209",
                    "tle": [
                        "1 67209C 25304T   26011.11159722 -.00041643  00000+0 -94936-3 0   114",
                        "2 67209  70.0001 325.2364 0003768 262.3377 325.6799 15.42799918    10"
                    ]
                },
                {
                    "noradId": "67208",
                    "tle": [
                        "1 67208C 25304S   26011.11229167 -.00044149  00000+0 -10075-2 0   119",
                        "2 67208  70.0001 325.2860 0003338 271.1898 275.7815 15.42773083    18"
                    ]
                },
                {
                    "noradId": "67207",
                    "tle": [
                        "1 67207C 25304R   26011.11576389 -.00046250  00000+0 -75167-3 0   118",
                        "2 67207  70.0001 325.1463 0003489 273.0001  46.9722 15.52568229    19"
                    ]
                },
                {
                    "noradId": "67206",
                    "tle": [
                        "1 67206C 25304Q   26011.11645833 -.00051300  00000+0 -83377-3 0   112",
                        "2 67206  70.0001 325.1466 0003380 274.7209  47.2137 15.52572667    14"
                    ]
                },
                {
                    "noradId": "67205",
                    "tle": [
                        "1 67205C 25304P   26011.11090278 -.00765300  00000+0 -12545-1 0   117",
                        "2 67205  70.0000 325.1645 0003431 271.1517  17.6397 15.53059183    14"
                    ]
                },
                {
                    "noradId": "67204",
                    "tle": [
                        "1 67204C 25304N   26011.11298611 -.02268000  00000+0 -44086-1 0   119",
                        "2 67204  69.9999 325.1649 0003516 267.7911  27.7214 15.49764386    17"
                    ]
                },
                {
                    "noradId": "67203",
                    "tle": [
                        "1 67203C 25304M   26011.11437500 -.00429260  00000+0 -97650-2 0   111",
                        "2 67203  69.9998 325.1913 0003333 270.0705   6.9261 15.43257861    14"
                    ]
                },
                {
                    "noradId": "67202",
                    "tle": [
                        "1 67202C 25304L   26011.11298611 -.00028164  00000+0 -64188-3 0   117",
                        "2 67202  70.0000 325.2462 0003608 263.2293 321.4820 15.42795257    12"
                    ]
                },
                {
                    "noradId": "67201",
                    "tle": [
                        "1 67201C 25304K   26011.11159722 -.00038077  00000+0 -86905-3 0   110",
                        "2 67201  70.0001 325.3012 0003492 270.5865 261.5364 15.42763446    13"
                    ]
                },
                {
                    "noradId": "67200",
                    "tle": [
                        "1 67200C 25304J   26011.11506944 -.00042166  00000+0 -96208-3 0   112",
                        "2 67200  69.9999 325.3435 0003378 272.1718 234.2142 15.42776890    10"
                    ]
                },
                {
                    "noradId": "67199",
                    "tle": [
                        "1 67199C 25304H   26011.11229167 -.00035793  00000+0 -58173-3 0   115",
                        "2 67199  70.0000 325.1741 0003369 272.0343  13.2132 15.52557320    14"
                    ]
                },
                {
                    "noradId": "67198",
                    "tle": [
                        "1 67198C 25304G   26011.11229167  .00051809  00000+0  11837-2 0   113",
                        "2 67198  69.9998 325.2220 0003017 279.8097 324.1833 15.42642539    18"
                    ]
                },
                {
                    "noradId": "67197",
                    "tle": [
                        "1 67197C 25304F   26011.11368056 -.01740800  00000+0 -29138-1 0   114",
                        "2 67197  70.0000 325.1732 0003737 269.9923  20.8173 15.53473178    18"
                    ]
                },
                {
                    "noradId": "67196",
                    "tle": [
                        "1 67196C 25304E   26011.11437500 -.00053642  00000+0 -12242-2 0   113",
                        "2 67196  70.0000 325.3195 0003163 271.3081 254.2267 15.42782697    11"
                    ]
                },
                {
                    "noradId": "67195",
                    "tle": [
                        "1 67195C 25304D   26011.11437500 -.00048695  00000+0 -79144-3 0   119",
                        "2 67195  70.0002 325.1776 0003351 271.7640  17.4513 15.52569839    14"
                    ]
                },
                {
                    "noradId": "67194",
                    "tle": [
                        "1 67194C 25304C   26011.09979167 -.00046745  00000+0 -10668-2 0   114",
                        "2 67194  70.0001 325.3077 0003245 274.0015 215.5659 15.42775597    13"
                    ]
                },
                {
                    "noradId": "67193",
                    "tle": [
                        "1 67193C 25304B   26011.11715278 -.02266700  00000+0 -44268-1 0   116",
                        "2 67193  69.9997 325.1790 0003433 268.4271  28.9663 15.49627069    11"
                    ]
                },
                {
                    "noradId": "67192",
                    "tle": [
                        "1 67192C 25304A   26011.11437500  .00009618  00000+0  21964-3 0   113",
                        "2 67192  69.9998 325.3712 0002977 267.2742 213.3342 15.42699315    19"
                    ]
                }
            ]
        }
    ],
    "config": {}
}